{"type": "FeatureCollection", "features": [ {"type": "Feature", "properties": {"norad_id": 38953, "name": "BEIDOU-2 G6 (C02)", "group": "beidou", "lat": -2.3970594556827685, "lon": 38.262674876267475, "alt_km": 35757.500680036, "timestamp": "2025-12-24T14:43:29.266841+00:00", "meta": {"OBJECT_NAME": "BEIDOU-2 G6 (C02)", "OBJECT_ID": "2012-059A", "EPOCH": "2025-12-23T23:07:51.482784", "MEAN_MOTION": 1.00267756, "ECCENTRICITY": 0.0008393, "INCLINATION": 3.9757, "RA_OF_ASC_NODE": 75.399, "ARG_OF_PERICENTER": 291.3316, "MEAN_ANOMALY": 156.8813, "EPHEMERIS_TYPE": 0, "CLASSIFICATION_TYPE": "U", "NORAD_CAT_ID": 38953, "ELEMENT_SET_NO": 999, "REV_AT_EPOCH": 4815, "BSTAR": 0, "MEAN_MOTION_DOT": -1.54e-06, "MEAN_MOTION_DDOT": 0}, "tle": {"line1": "1 38953U 12059A   25357.96379031 -.00000154  00000+0  00000+0 0  9994", "line2": "2 38953   3.9757  75.3990 0008393 291.3316 156.8813  1.00267756 48156"}}, "geometry": {"type": "Point", "coordinates": [38.262674876267475, -2.3970594556827685]}}, {"type": "Feature", "properties": {"norad_id": 40549, "name": "BEIDOU-3S IGSO-1S (C31)", "group": "beidou", "lat": 45.26807953684824, "lon": 58.200726396215536, "alt_km": 35756.16434441758, "timestamp": "2025-12-24T14:43:29.266853+00:00", "meta": {"OBJECT_NAME": "BEIDOU-3S IGSO-1S (C31)", "OBJECT_ID": "2015-019A", "EPOCH": "2025-12-18T19:55:38.829792", "MEAN_MOTION": 1.00292047, "ECCENTRICITY": 0.0036331, "INCLINATION": 49.5404, "RA_OF_ASC_NODE": 297.6395, "ARG_OF_PERICENTER": 194.0028, "MEAN_ANOMALY": 349.3621, "EPHEMERIS_TYPE": 0, "CLASSIFICATION_TYPE": "U", "NORAD_CAT_ID": 40549, "ELEMENT_SET_NO": 999, "REV_AT_EPOCH": 3926, "BSTAR": 0, "MEAN_MOTION_DOT": -1.83e-06, "MEAN_MOTION_DDOT": 0}, "tle": {"line1": "1 40549U 15019A   25352.83031053 -.00000183  00000+0  00000+0 0  9999", "line2": "2 40549  49.5404 297.6395 0036331 194.0028 349.3621  1.00292047 39264"}}, "geometry": {"type": "Point", "coordinates": [58.200726396215536, 45.26807953684824]}}, {"type": "Feature", "properties": {"norad_id": 40748, "name": "BEIDOU-3S M2S (C58)", "group": "beidou", "lat": -35.51270236207944, "lon": 157.96905481220716, "alt_km": 21509.525769053973, "timestamp": "2025-12-24T14:43:29.266876+00:00", "meta": {"OBJECT_NAME": "BEIDOU-3S M2S (C58)", "OBJECT_ID": "2015-037A", "EPOCH": "2025-12-23T17:46:18.118272", "MEAN_MOTION": 1.86229556, "ECCENTRICITY": 0.00118562, "INCLINATION": 55.029, "RA_OF_ASC_NODE": 308.0865, "ARG_OF_PERICENTER": 270.9171, "MEAN_ANOMALY": 88.9514, "EPHEMERIS_TYPE": 0, "CLASSIFICATION_TYPE": "U", "NORAD_CAT_ID": 40748, "ELEMENT_SET_NO": 999, "REV_AT_EPOCH": 7085, "BSTAR": 0, "MEAN_MOTION_DOT": -5.3e-07, "MEAN_MOTION_DDOT": 0}, "tle": {"line1": "1 40748U 15037A   25357.74048748 -.00000053  00000+0  00000+0 0  9990", "line2": "2 40748  55.0290 308.0865 0011856 270.9171  88.9514  1.86229556 70853"}}, "geometry": {"type": "Point", "coordinates": [157.96905481220716, -35.51270236207944]}}, {"type": "Feature", "properties": {"norad_id": 40749, "name": "BEIDOU-3S M1S (C57)", "group": "beidou", "lat": 51.248316475804, "lon": 8.628593750816625, "alt_km": 21516.166419064786, "timestamp": "2025-12-24T14:43:29.266894+00:00", "meta": {"OBJECT_NAME": "BEIDOU-3S M1S (C57)", "OBJECT_ID": "2015-037B", "EPOCH": "2025-12-23T23:15:38.644992", "MEAN_MOTION": 1.86253915, "ECCENTRICITY": 0.00036937, "INCLINATION": 55.0251, "RA_OF_ASC_NODE": 308.0679, "ARG_OF_PERICENTER": 2.4172, "MEAN_ANOMALY": 357.5894, "EPHEMERIS_TYPE": 0, "CLASSIFICATION_TYPE": "U", "NORAD_CAT_ID": 40749, "ELEMENT_SET_NO": 999, "REV_AT_EPOCH": 7086, "BSTAR": 0, "MEAN_MOTION_DOT": -5.3e-07, "MEAN_MOTION_DDOT": 0}, "tle": {"line1": "1 40749U 15037B   25357.96919728 -.00000053  00000+0  00000+0 0  9990", "line2": "2 40749  55.0251 308.0679 0003693   2.4172 357.5894  1.86253915 70866"}}, "geometry": {"type": "Point", "coordinates": [8.628593750816625, 51.248316475804]}}, {"type": "Feature", "properties": {"norad_id": 40938, "name": "BEIDOU-3S IGSO-2S (C56)", "group": "beidou", "lat": 23.3115116058254, "lon": 59.30357226914255, "alt_km": 35587.81270302513, "timestamp": "2025-12-24T14:43:29.266907+00:00", "meta": {"OBJECT_NAME": "BEIDOU-3S IGSO-2S (C56)", "OBJECT_ID": "2015-053A", "EPOCH": "2025-12-23T17:00:29.513952", "MEAN_MOTION": 1.00267867, "ECCENTRICITY": 0.00606419, "INCLINATION": 49.4936, "RA_OF_ASC_NODE": 260.877, "ARG_OF_PERICENTER": 188.6586, "MEAN_ANOMALY": 353.8857, "EPHEMERIS_TYPE": 0, "CLASSIFICATION_TYPE": "U", "NORAD_CAT_ID": 40938, "ELEMENT_SET_NO": 999, "REV_AT_EPOCH": 3759, "BSTAR": 0, "MEAN_MOTION_DOT": -1.09e-06, "MEAN_MOTION_DDOT": 0}, "tle": {"line1": "1 40938U 15053A   25357.70867493 -.00000109  00000+0  00000+0 0  9993", "line2": "2 40938  49.4936 260.8770 0060641 188.6586 353.8857  1.00267867 37590"}}, "geometry": {"type": "Point", "coordinates": [59.30357226914255, 23.3115116058254]}}, {"type": "Feature", "properties": {"norad_id": 41434, "name": "BEIDOU-2 IGSO-6 (C13)", "group": "beidou", "lat": 7.341895838209533, "lon": 44.08210371424572, "alt_km": 35971.91829109297, "timestamp": "2025-12-24T14:43:29.266919+00:00", "meta": {"OBJECT_NAME": "BEIDOU-2 IGSO-6 (C13)", "OBJECT_ID": "2016-021A", "EPOCH": "2025-12-18T14:33:38.837664", "MEAN_MOTION": 1.00292299, "ECCENTRICITY": 0.00610054, "INCLINATION": 59.9732, "RA_OF_ASC_NODE": 39.8392, "ARG_OF_PERICENTER": 230.2031, "MEAN_ANOMALY": 129.1398, "EPHEMERIS_TYPE": 0, "CLASSIFICATION_TYPE": "U", "NORAD_CAT_ID": 41434, "ELEMENT_SET_NO": 999, "REV_AT_EPOCH": 3566, "BSTAR": 0, "MEAN_MOTION_DOT": -1.41e-06, "MEAN_MOTION_DDOT": 0}, "tle": {"line1": "1 41434U 16021A   25352.60669951 -.00000141  00000+0  00000+0 0  9990", "line2": "2 41434  59.9732  39.8392 0061005 230.2031 129.1398  1.00292299 35667"}}, "geometry": {"type": "Point", "coordinates": [44.08210371424572, 7.341895838209533]}}, {"type": "Feature", "properties": {"norad_id": 41586, "name": "BEIDOU-2 G7 (C03)", "group": "beidou", "lat": -0.08357151282862153, "lon": 64.68214870306298, "alt_km": 35764.8564049096, "timestamp": "2025-12-24T14:43:29.266932+00:00", "meta": {"OBJECT_NAME": "BEIDOU-2 G7 (C03)", "OBJECT_ID": "2016-037A", "EPOCH": "2025-12-24T06:46:33.984192", "MEAN_MOTION": 1.00269256, "ECCENTRICITY": 0.000522, "INCLINATION": 1.7834, "RA_OF_ASC_NODE": 67.8882, "ARG_OF_PERICENTER": 1.209, "MEAN_ANOMALY": 236.0405, "EPHEMERIS_TYPE": 0, "CLASSIFICATION_TYPE": "U", "NORAD_CAT_ID": 41586, "ELEMENT_SET_NO": 999, "REV_AT_EPOCH": 513, "BSTAR": 0, "MEAN_MOTION_DOT": -3.33e-06, "MEAN_MOTION_DDOT": 0}, "tle": {"line1": "1 41586U 16037A   25358.28233778 -.00000333  00000+0  00000+0 0  9992", "line2": "2 41586   1.7834  67.8882 0005220   1.2090 236.0405  1.00269256  5139"}}, "geometry": {"type": "Point", "coordinates": [64.68214870306298, -0.08357151282862153]}}, {"type": "Feature", "properties": {"norad_id": 43001, "name": "BEIDOU-3 M1 (C19)", "group": "beidou", "lat": -5.091944548852066, "lon": 65.48574906479267, "alt_km": 21511.821165676643, "timestamp": "2025-12-24T14:43:29.266944+00:00", "meta": {"OBJECT_NAME": "BEIDOU-3 M1 (C19)", "OBJECT_ID": "2017-069A", "EPOCH": "2025-12-24T02:03:22.336416", "MEAN_MOTION": 1.86231054, "ECCENTRICITY": 0.00099, "INCLINATION": 56.5357, "RA_OF_ASC_NODE": 68.8595, "ARG_OF_PERICENTER": 302.4649, "MEAN_ANOMALY": 57.4938, "EPHEMERIS_TYPE": 0, "CLASSIFICATION_TYPE": "U", "NORAD_CAT_ID": 43001, "ELEMENT_SET_NO": 999, "REV_AT_EPOCH": 5534, "BSTAR": 0, "MEAN_MOTION_DOT": -2.4e-07, "MEAN_MOTION_DDOT": 0}, "tle": {"line1": "1 43001U 17069A   25358.08567519 -.00000024  00000+0  00000+0 0  9990", "line2": "2 43001  56.5357  68.8595 0009900 302.4649  57.4938  1.86231054 55341"}}, "geometry": {"type": "Point", "coordinates": [65.48574906479267, -5.091944548852066]}}, {"type": "Feature", "properties": {"norad_id": 43002, "name": "BEIDOU-3 M2 (C20)", "group": "beidou", "lat": 28.788096480581004, "lon": 90.17857921724153, "alt_km": 21517.372308859074, "timestamp": "2025-12-24T14:43:29.266955+00:00", "meta": {"OBJECT_NAME": "BEIDOU-3 M2 (C20)", "OBJECT_ID": "2017-069B", "EPOCH": "2025-12-22T09:54:58.962816", "MEAN_MOTION": 1.86231087, "ECCENTRICITY": 0.00067293, "INCLINATION": 56.5339, "RA_OF_ASC_NODE": 68.9503, "ARG_OF_PERICENTER": 327.7398, "MEAN_ANOMALY": 32.2697, "EPHEMERIS_TYPE": 0, "CLASSIFICATION_TYPE": "U", "NORAD_CAT_ID": 43002, "ELEMENT_SET_NO": 999, "REV_AT_EPOCH": 5530, "BSTAR": 0, "MEAN_MOTION_DOT": -2.8e-07, "MEAN_MOTION_DDOT": 0}, "tle": {"line1": "1 43002U 17069B   25356.41318244 -.00000028  00000+0  00000+0 0  9999", "line2": "2 43002  56.5339  68.9503 0006729 327.7398  32.2697  1.86231087 55304"}}, "geometry": {"type": "Point", "coordinates": [90.17857921724153, 28.788096480581004]}}, {"type": "Feature", "properties": {"norad_id": 43107, "name": "BEIDOU-3 M7 (C27)", "group": "beidou", "lat": -22.252714486253414, "lon": 145.35508432215457, "alt_km": 21537.28821342548, "timestamp": "2025-12-24T14:43:29.266967+00:00", "meta": {"OBJECT_NAME": "BEIDOU-3 M7 (C27)", "OBJECT_ID": "2018-003A", "EPOCH": "2025-12-23T05:31:08.538816", "MEAN_MOTION": 1.86232625, "ECCENTRICITY": 0.0002961, "INCLINATION": 54.4874, "RA_OF_ASC_NODE": 308.4506, "ARG_OF_PERICENTER": 66.5422, "MEAN_ANOMALY": 293.4915, "EPHEMERIS_TYPE": 0, "CLASSIFICATION_TYPE": "U", "NORAD_CAT_ID": 43107, "ELEMENT_SET_NO": 999, "REV_AT_EPOCH": 5407, "BSTAR": 0, "MEAN_MOTION_DOT": -5.5e-07, "MEAN_MOTION_DDOT": 0}, "tle": {"line1": "1 43107U 18003A   25357.22995994 -.00000055  00000+0  00000+0 0  9997", "line2": "2 43107  54.4874 308.4506 0002961  66.5422 293.4915  1.86232625 54072"}}, "geometry": {"type": "Point", "coordinates": [145.35508432215457, -22.252714486253414]}}]}